H1 CPF 01  gfz 2022 04 23 00  6131 tandemx   
H2 1003001  6202 36605    2022 04 23 00 59 42 2022 04 28 00 00 42   120 1 1  0 0 0
H9
10 0 59693  82782.000000  0     -58230.460  -2862415.223   6254585.748
10 0 59693  82902.000000  0    -343209.073  -2041600.786   6559067.271
10 0 59693  83022.000000  0    -607478.052  -1180348.234   6748264.552
10 0 59693  83142.000000  0    -845854.500   -294100.033   6818871.786
10 0 59693  83262.000000  0   -1053882.202    601186.256   6769655.278
10 0 59693  83382.000000  0   -1227914.467   1489325.324   6601473.402
10 0 59693  83502.000000  0   -1365177.757   2354196.060   6317262.400
10 0 59693  83622.000000  0   -1463816.031   3180034.105   5921988.462
10 0 59693  83742.000000  0   -1522915.034   3951720.671   5422565.697
10 0 59693  83862.000000  0   -1542505.191   4655062.678   4827741.569
10 0 59693  83982.000000  0   -1523544.470   5277060.665   4147949.704
10 0 59693  84102.000000  0   -1467880.018   5806157.281   3395130.417
10 0 59693  84222.000000  0   -1378190.826   6232460.921   2582523.292
10 0 59693  84342.000000  0   -1257912.497   6547941.085   1724433.120
10 0 59693  84462.000000  0   -1111142.512   6746588.406    835973.220
10 0 59693  84582.000000  0    -942531.157   6824534.584    -67207.080
10 0 59693  84702.000000  0    -757160.400   6780131.810   -969206.009
10 0 59693  84822.000000  0    -560413.076   6613986.236  -1854160.555
10 0 59693  84942.000000  0    -357836.982   6328942.668  -2706534.368
10 0 59693  85062.000000  0    -155007.901   5930025.577  -3511394.805
10 0 59693  85182.000000  0      42606.002   5424339.451  -4254676.042
10 0 59693  85302.000000  0     229775.417   4820930.070  -4923423.615
10 0 59693  85422.000000  0     401633.402   4130610.650  -5506015.171
10 0 59693  85542.000000  0     553788.399   3365757.551  -5992354.646
10 0 59693  85662.000000  0     682423.804   2540079.917  -6374036.833
10 0 59693  85782.000000  0     784382.812   1668369.678  -6644480.696
10 0 59693  85902.000000  0     857237.372    766236.991  -6799031.836
10 0 59693  86022.000000  0     899339.694   -150165.974  -6835034.315
10 0 59693  86142.000000  0     909856.172  -1064428.960  -6751871.051
10 0 59693  86262.000000  0     888782.720  -1960170.127  -6550971.384
10 0 59693  86382.000000  0     836942.308  -2821320.576  -6235789.244
10 0 59694    102.000000  0     755964.383  -3632407.434  -5811752.879
10 0 59694    222.000000  0     648245.175  -4378830.842  -5286180.356
10 0 59694    342.000000  0     516891.520  -5047127.238  -4668163.879
10 0 59694    462.000000  0     365647.531  -5625217.412  -3968424.500
10 0 59694    582.000000  0     198805.392  -6102634.004  -3199135.891
10 0 59694    702.000000  0      21102.204  -6470721.951  -2373719.863
10 0 59694    822.000000  0    -162394.980  -6722808.820  -1506616.635
10 0 59694    942.000000  0    -346413.715  -6854338.869   -613031.417
10 0 59694   1062.000000  0    -525607.156  -6862965.790    291336.361
10 0 59694   1182.000000  0    -694688.294  -6748602.161   1190575.031
10 0 59694   1302.000000  0    -848564.203  -6513424.726   2068848.919
10 0 59694   1422.000000  0    -982466.622  -6161833.295   2910686.868
10 0 59694   1542.000000  0   -1092074.623  -5700364.225   3701263.963
10 0 59694   1662.000000  0   -1173626.536  -5137560.194   4426668.438
10 0 59694   1782.000000  0   -1224019.713  -4483802.614   5074148.326
10 0 59694   1902.000000  0   -1240894.255  -3751111.464   5632336.057
10 0 59694   2022.000000  0   -1222700.002  -2952914.124   6091446.809
10 0 59694   2142.000000  0   -1168743.937  -2103789.890   6443443.987
10 0 59694   2262.000000  0   -1079217.891  -1219199.421   6682172.665
10 0 59694   2382.000000  0    -955207.476   -315200.833   6803462.333
10 0 59694   2502.000000  0    -798681.714    591843.044   6805195.096
10 0 59694   2622.000000  0    -612461.904   1485560.402   6687340.764
10 0 59694   2742.000000  0    -400170.455   2349865.735   6451957.409
10 0 59694   2862.000000  0    -166161.039   3169249.211   6103157.459
10 0 59694   2982.000000  0      84568.432   3929056.104   5647040.365
10 0 59694   3102.000000  0     346478.723   4615752.355   5091591.266
10 0 59694   3222.000000  0     613607.399   5217171.452   4446547.752
10 0 59694   3342.000000  0     879698.914   5722738.309   3723232.646
10 0 59694   3462.000000  0    1138343.039   6123662.054   2934360.212
10 0 59694   3582.000000  0    1383123.665   6413104.236   2093814.437
10 0 59694   3702.000000  0    1607768.273   6586302.529   1216397.708
10 0 59694   3822.000000  0    1806297.162   6640654.981    317564.271
10 0 59694   3942.000000  0    1973168.336   6575759.773   -586860.112
10 0 59694   4062.000000  0    2103413.708   6393411.260  -1480964.835
10 0 59694   4182.000000  0    2192763.975   6097552.735  -2349041.878
10 0 59694   4302.000000  0    2237759.004   5694186.911  -3175868.396
10 0 59694   4422.000000  0    2235840.889   5191245.989  -3946978.467
10 0 59694   4542.000000  0    2185427.182   4598424.315  -4648917.187
10 0 59694   4662.000000  0    2085962.568   3926980.127  -5269471.557
10 0 59694   4782.000000  0    1937949.130   3189512.392  -5797875.361
10 0 59694   4902.000000  0    1742954.551   2399717.458  -6224986.636
10 0 59694   5022.000000  0    1503598.086   1572130.441  -6543434.109
10 0 59694   5142.000000  0    1223516.351    721858.247  -6747732.778
10 0 59694   5262.000000  0     907308.231   -135693.072  -6834369.466
10 0 59694   5382.000000  0     560459.399   -985092.571  -6801856.183
10 0 59694   5502.000000  0     189248.749  -1811155.224  -6650751.196
10 0 59694   5622.000000  0    -199361.593  -2599204.992  -6383650.527
10 0 59694   5742.000000  0    -597853.143  -3335330.712  -6005150.264
10 0 59694   5862.000000  0    -998292.120  -4006629.448  -5521774.994
10 0 59694   5982.000000  0   -1392482.227  -4601432.824  -4941876.594
10 0 59694   6102.000000  0   -1772128.111  -5109514.878  -4275501.992
10 0 59694   6222.000000  0   -2129006.416  -5522275.898  -3534229.557
10 0 59694   6342.000000  0   -2455140.547  -5832897.757  -2730976.332
10 0 59694   6462.000000  0   -2742975.433  -6036467.581  -1879778.820
10 0 59694   6582.000000  0   -2985548.558  -6130066.858   -995549.750
10 0 59694   6702.000000  0   -3176652.872  -6112822.041    -93813.995
10 0 59694   6822.000000  0   -3310986.416  -5985913.506    809570.297
10 0 59694   6942.000000  0   -3384284.947  -5752543.228   1698698.691
10 0 59694   7062.000000  0   -3393434.137  -5417861.169   2557909.934
10 0 59694   7182.000000  0   -3336557.930  -4988852.022   3372070.277
10 0 59694   7302.000000  0   -3213081.149  -4474186.465   4126846.771
10 0 59694   7422.000000  0   -3023765.015  -3884040.180   4808964.155
10 0 59694   7542.000000  0   -2770715.184  -3229885.042   5406439.612
10 0 59694   7662.000000  0   -2457361.567  -2524258.736   5908791.555
10 0 59694   7782.000000  0   -2088411.124  -1780518.974   6307219.186
10 0 59694   7902.000000  0   -1669774.978  -1012586.847   6594752.724
10 0 59694   8022.000000  0   -1208470.172   -234681.884   6766369.510
10 0 59694   8142.000000  0    -712500.825    538941.764   6819073.845
10 0 59694   8262.000000  0    -190719.635   1294255.213   6751946.771
10 0 59694   8382.000000  0     347330.112   2017709.133   6566161.551
10 0 59694   8502.000000  0     891588.963   2696476.912   6264964.109
10 0 59694   8622.000000  0    1431668.572   3318682.041   5853619.517
10 0 59694   8742.000000  0    1957049.033   3873608.402   5339325.705
10 0 59694   8862.000000  0    2457283.876   4351889.630   4731093.865
10 0 59694   8982.000000  0    2922209.525   4745673.206   4039595.287
10 0 59694   9102.000000  0    3342152.391   5048754.637   3276978.015
10 0 59694   9222.000000  0    3708132.549   5256683.389   2456657.361
10 0 59694   9342.000000  0    4012059.236   5366833.777   1593075.402
10 0 59694   9462.000000  0    4246907.634   5378436.292    701442.386
10 0 59694   9582.000000  0    4406878.011   5292575.440   -202538.696
10 0 59694   9702.000000  0    4487529.997   5112145.674  -1102958.227
10 0 59694   9822.000000  0    4485890.772   4841771.875  -1983987.470
10 0 59694   9942.000000  0    4400533.115   4487696.130  -2830164.081
10 0 59694  10062.000000  0    4231621.836   4057633.544  -3626669.118
10 0 59694  10182.000000  0    3980926.693   3560600.151  -4359588.724
10 0 59694  10302.000000  0    3651804.246   3006718.955  -5016154.644
10 0 59694  10422.000000  0    3249148.820   2407009.135  -5584961.531
10 0 59694  10542.000000  0    2779313.555   1773163.294  -6056156.689
10 0 59694  10662.000000  0    2250004.628   1117317.512  -6421599.831
10 0 59694  10782.000000  0    1670150.926    451819.860  -6674991.171
10 0 59694  10902.000000  0    1049753.567   -210998.154  -6811969.330
10 0 59694  11022.000000  0     399714.321   -859045.784  -6830179.778
10 0 59694  11142.000000  0    -268353.051  -1480688.413  -6729308.970
10 0 59694  11262.000000  0    -942324.338  -2064950.014  -6511088.860
10 0 59694  11382.000000  0   -1609779.610  -2601702.845  -6179271.722
10 0 59694  11502.000000  0   -2258226.777  -3081841.030  -5739572.040
10 0 59694  11622.000000  0   -2875330.575  -3497434.688  -5199578.613
10 0 59694  11742.000000  0   -3449146.021  -3841864.424  -4568636.219
10 0 59694  11862.000000  0   -3968351.041  -4109931.828  -3857694.482
10 0 59694  11982.000000  0   -4422472.601  -4297943.405  -3079127.490
10 0 59694  12102.000000  0   -4802102.863  -4403766.545  -2246525.327
10 0 59694  12222.000000  0   -5099099.421  -4426854.873  -1374459.863
10 0 59694  12342.000000  0   -5306764.543  -4368242.114   -478229.229
10 0 59694  12462.000000  0   -5419998.760  -4230504.245    426414.401
10 0 59694  12582.000000  0   -5435424.336  -4017690.404   1323549.197
10 0 59694  12702.000000  0   -5351473.754  -3735222.722   2197373.786
10 0 59694  12822.000000  0   -5168441.141  -3389767.724   3032494.715
99
